STARLINK-34824          
1 65042U 25161AD  26089.01001057  .00017848  00000+0  61313-3 0  9995
2 65042  53.1610 199.6206 0001030 108.0272 252.0841 15.30208089 37347
STARLINK-34771          
1 65078U 25167A   26088.00687168  .00011100  00000+0  38624-3 0  9995
2 65078  53.1582 294.4090 0001490  89.2553 270.8619 15.30208361 36478
STARLINK-34634          
1 65079U 25167B   26088.93394052  .00032500  00000+0  11046-2 0  9990
2 65079  53.1588 290.2414 0000961 102.5737 257.5371 15.30200464 36613
STARLINK-34267          
1 65080U 25167C   26088.88342376  .00046784  00000+0  15818-2 0  9998
2 65080  53.1578 290.6362 0001526  80.8887 279.2286 15.30198932 37828
STARLINK-34561          
1 65081U 25167D   26087.86885315  .00027235  00000+0  92805-3 0  9993
2 65081  53.1584 294.9654 0001174  67.9949 292.1176 15.30208568 37707
STARLINK-34626          
1 65082U 25167E   26088.93658542  .00020899  00000+0  71585-3 0  9994
2 65082  53.1588 292.4209 0000888 100.6461 259.4639 15.30195062 36585
STARLINK-34247          
1 65083U 25167F   26088.99292401  .00016952  00000+0  58311-3 0  9996
2 65083  53.1579 289.8993 0001316 101.2267 258.8882 15.30202789 36627
STARLINK-34601          
1 65084U 25167G   26089.04198707  .00027464  00000+0  93555-3 0  9997
2 65084  53.1581 292.2842 0001012  85.1058 275.0058 15.30214931 36597
STARLINK-34792          
1 65085U 25167H   26087.88848302  .00017642  00000+0  60624-3 0  9999
2 65085  53.1590 297.8859 0001045 106.6985 253.4131 15.30206157 36415
STARLINK-34822          
1 65086U 25167J   26088.99566975  .00020661  00000+0  70743-3 0  9994
2 65086  53.1587 292.7063 0001225  87.4291 272.6850 15.30214767 36584
STARLINK-34686          
1 65087U 25167K   26088.01278080  .00031163  00000+0  10594-2 0  9991
2 65087  53.1586 297.2392 0000849  76.1338 283.9758 15.30212759 36432
STARLINK-34594          
1 65088U 25167L   26088.98933636  .00027839  00000+0  94808-3 0  9999
2 65088  53.1585 292.6664 0001179  89.5715 270.5421 15.30215398 36584
STARLINK-34665          
1 65089U 25167M   26087.87583817  .00035867  00000+0  12167-2 0  9996
2 65089  53.1582 297.8015 0001163  64.0562 296.0559 15.30214490 36419
STARLINK-34673          
1 65090U 25167N   26088.98299766  .00047500  00000+0  16028-2 0  9995
2 65090  53.1585 292.6280 0001298  78.8658 281.2489 15.30257031 36583
STARLINK-34648          
1 65091U 25167P   26088.98089349  .00019908  00000+0  68239-3 0  9993
2 65091  53.1576 292.6126 0000653  82.3113 277.7962 15.30204164 36588
STARLINK-34640          
1 65092U 25167Q   26089.04409695  .00021289  00000+0  72843-3 0  9993
2 65092  53.1583 292.2957 0001189  96.1221 263.9915 15.30219087 36599
