[{"OBJECT_NAME":"STARLINK-34824","OBJECT_ID":"2025-161AD","EPOCH":"2026-03-30T00:14:24.913248","MEAN_MOTION":15.30208089,"ECCENTRICITY":0.000103,"INCLINATION":53.161,"RA_OF_ASC_NODE":199.6206,"ARG_OF_PERICENTER":108.0272,"MEAN_ANOMALY":252.0841,"EPHEMERIS_TYPE":0,"CLASSIFICATION_TYPE":"U","NORAD_CAT_ID":65042,"ELEMENT_SET_NO":999,"REV_AT_EPOCH":3734,"BSTAR":0.00061313,"MEAN_MOTION_DOT":0.00017848,"MEAN_MOTION_DDOT":0},{"OBJECT_NAME":"STARLINK-34771","OBJECT_ID":"2025-167A","EPOCH":"2026-03-29T00:09:53.713152","MEAN_MOTION":15.30208361,"ECCENTRICITY":0.000149,"INCLINATION":53.1582,"RA_OF_ASC_NODE":294.409,"ARG_OF_PERICENTER":89.2553,"MEAN_ANOMALY":270.8619,"EPHEMERIS_TYPE":0,"CLASSIFICATION_TYPE":"U","NORAD_CAT_ID":65078,"ELEMENT_SET_NO":999,"REV_AT_EPOCH":3647,"BSTAR":0.00038624,"MEAN_MOTION_DOT":0.000111,"MEAN_MOTION_DDOT":0},{"OBJECT_NAME":"STARLINK-34634","OBJECT_ID":"2025-167B","EPOCH":"2026-03-29T22:24:52.460928","MEAN_MOTION":15.30200464,"ECCENTRICITY":9.61e-5,"INCLINATION":53.1588,"RA_OF_ASC_NODE":290.2414,"ARG_OF_PERICENTER":102.5737,"MEAN_ANOMALY":257.5371,"EPHEMERIS_TYPE":0,"CLASSIFICATION_TYPE":"U","NORAD_CAT_ID":65079,"ELEMENT_SET_NO":999,"REV_AT_EPOCH":3661,"BSTAR":0.0011046,"MEAN_MOTION_DOT":0.000325,"MEAN_MOTION_DDOT":0},{"OBJECT_NAME":"STARLINK-34267","OBJECT_ID":"2025-167C","EPOCH":"2026-03-29T21:12:07.812864","MEAN_MOTION":15.30198932,"ECCENTRICITY":0.0001526,"INCLINATION":53.1578,"RA_OF_ASC_NODE":290.6362,"ARG_OF_PERICENTER":80.8887,"MEAN_ANOMALY":279.2286,"EPHEMERIS_TYPE":0,"CLASSIFICATION_TYPE":"U","NORAD_CAT_ID":65080,"ELEMENT_SET_NO":999,"REV_AT_EPOCH":3782,"BSTAR":0.0015818,"MEAN_MOTION_DOT":0.00046784,"MEAN_MOTION_DDOT":0},{"OBJECT_NAME":"STARLINK-34561","OBJECT_ID":"2025-167D","EPOCH":"2026-03-28T20:51:08.912160","MEAN_MOTION":15.30208568,"ECCENTRICITY":0.00011741,"INCLINATION":53.1584,"RA_OF_ASC_NODE":294.9654,"ARG_OF_PERICENTER":67.9949,"MEAN_ANOMALY":292.1176,"EPHEMERIS_TYPE":0,"CLASSIFICATION_TYPE":"U","NORAD_CAT_ID":65081,"ELEMENT_SET_NO":999,"REV_AT_EPOCH":3770,"BSTAR":0.00092804669,"MEAN_MOTION_DOT":0.00027235,"MEAN_MOTION_DDOT":0},{"OBJECT_NAME":"STARLINK-34626","OBJECT_ID":"2025-167E","EPOCH":"2026-03-29T22:28:40.980288","MEAN_MOTION":15.30195062,"ECCENTRICITY":8.88e-5,"INCLINATION":53.1588,"RA_OF_ASC_NODE":292.4209,"ARG_OF_PERICENTER":100.6461,"MEAN_ANOMALY":259.4639,"EPHEMERIS_TYPE":0,"CLASSIFICATION_TYPE":"U","NORAD_CAT_ID":65082,"ELEMENT_SET_NO":999,"REV_AT_EPOCH":3658,"BSTAR":0.00071585,"MEAN_MOTION_DOT":0.00020899,"MEAN_MOTION_DDOT":0},{"OBJECT_NAME":"STARLINK-34247","OBJECT_ID":"2025-167F","EPOCH":"2026-03-29T23:49:48.634464","MEAN_MOTION":15.30202789,"ECCENTRICITY":0.0001316,"INCLINATION":53.1579,"RA_OF_ASC_NODE":289.8993,"ARG_OF_PERICENTER":101.2267,"MEAN_ANOMALY":258.8882,"EPHEMERIS_TYPE":0,"CLASSIFICATION_TYPE":"U","NORAD_CAT_ID":65083,"ELEMENT_SET_NO":999,"REV_AT_EPOCH":3662,"BSTAR":0.00058311,"MEAN_MOTION_DOT":0.00016952,"MEAN_MOTION_DDOT":0},{"OBJECT_NAME":"STARLINK-34601","OBJECT_ID":"2025-167G","EPOCH":"2026-03-30T01:00:27.682848","MEAN_MOTION":15.30214931,"ECCENTRICITY":0.0001012,"INCLINATION":53.1581,"RA_OF_ASC_NODE":292.2842,"ARG_OF_PERICENTER":85.1058,"MEAN_ANOMALY":275.0058,"EPHEMERIS_TYPE":0,"CLASSIFICATION_TYPE":"U","NORAD_CAT_ID":65084,"ELEMENT_SET_NO":999,"REV_AT_EPOCH":3659,"BSTAR":0.00093555,"MEAN_MOTION_DOT":0.00027464,"MEAN_MOTION_DDOT":0},{"OBJECT_NAME":"STARLINK-34792","OBJECT_ID":"2025-167H","EPOCH":"2026-03-28T21:19:24.932928","MEAN_MOTION":15.30206157,"ECCENTRICITY":0.0001045,"INCLINATION":53.159,"RA_OF_ASC_NODE":297.8859,"ARG_OF_PERICENTER":106.6985,"MEAN_ANOMALY":253.4131,"EPHEMERIS_TYPE":0,"CLASSIFICATION_TYPE":"U","NORAD_CAT_ID":65085,"ELEMENT_SET_NO":999,"REV_AT_EPOCH":3641,"BSTAR":0.00060624,"MEAN_MOTION_DOT":0.00017642,"MEAN_MOTION_DDOT":0},{"OBJECT_NAME":"STARLINK-34822","OBJECT_ID":"2025-167J","EPOCH":"2026-03-29T23:53:45.866400","MEAN_MOTION":15.30214767,"ECCENTRICITY":0.0001225,"INCLINATION":53.1587,"RA_OF_ASC_NODE":292.7063,"ARG_OF_PERICENTER":87.4291,"MEAN_ANOMALY":272.685,"EPHEMERIS_TYPE":0,"CLASSIFICATION_TYPE":"U","NORAD_CAT_ID":65086,"ELEMENT_SET_NO":999,"REV_AT_EPOCH":3658,"BSTAR":0.00070743,"MEAN_MOTION_DOT":0.00020661,"MEAN_MOTION_DDOT":0},{"OBJECT_NAME":"STARLINK-34686","OBJECT_ID":"2025-167K","EPOCH":"2026-03-29T00:18:24.261120","MEAN_MOTION":15.30212759,"ECCENTRICITY":8.49e-5,"INCLINATION":53.1586,"RA_OF_ASC_NODE":297.2392,"ARG_OF_PERICENTER":76.1338,"MEAN_ANOMALY":283.9758,"EPHEMERIS_TYPE":0,"CLASSIFICATION_TYPE":"U","NORAD_CAT_ID":65087,"ELEMENT_SET_NO":999,"REV_AT_EPOCH":3643,"BSTAR":0.0010594,"MEAN_MOTION_DOT":0.00031163,"MEAN_MOTION_DDOT":0},{"OBJECT_NAME":"STARLINK-34594","OBJECT_ID":"2025-167L","EPOCH":"2026-03-29T23:44:38.661504","MEAN_MOTION":15.30215398,"ECCENTRICITY":0.0001179,"INCLINATION":53.1585,"RA_OF_ASC_NODE":292.6664,"ARG_OF_PERICENTER":89.5715,"MEAN_ANOMALY":270.5421,"EPHEMERIS_TYPE":0,"CLASSIFICATION_TYPE":"U","NORAD_CAT_ID":65088,"ELEMENT_SET_NO":999,"REV_AT_EPOCH":3658,"BSTAR":0.00094808,"MEAN_MOTION_DOT":0.00027839,"MEAN_MOTION_DDOT":0},{"OBJECT_NAME":"STARLINK-34665","OBJECT_ID":"2025-167M","EPOCH":"2026-03-28T21:01:12.417888","MEAN_MOTION":15.3021449,"ECCENTRICITY":0.0001163,"INCLINATION":53.1582,"RA_OF_ASC_NODE":297.8015,"ARG_OF_PERICENTER":64.0562,"MEAN_ANOMALY":296.0559,"EPHEMERIS_TYPE":0,"CLASSIFICATION_TYPE":"U","NORAD_CAT_ID":65089,"ELEMENT_SET_NO":999,"REV_AT_EPOCH":3641,"BSTAR":0.0012167361,"MEAN_MOTION_DOT":0.00035867,"MEAN_MOTION_DDOT":0},{"OBJECT_NAME":"STARLINK-34673","OBJECT_ID":"2025-167N","EPOCH":"2026-03-29T23:35:30.997824","MEAN_MOTION":15.30257031,"ECCENTRICITY":0.0001298,"INCLINATION":53.1585,"RA_OF_ASC_NODE":292.628,"ARG_OF_PERICENTER":78.8658,"MEAN_ANOMALY":281.2489,"EPHEMERIS_TYPE":0,"CLASSIFICATION_TYPE":"U","NORAD_CAT_ID":65090,"ELEMENT_SET_NO":999,"REV_AT_EPOCH":3658,"BSTAR":0.0016028,"MEAN_MOTION_DOT":0.000475,"MEAN_MOTION_DDOT":0},{"OBJECT_NAME":"STARLINK-34648","OBJECT_ID":"2025-167P","EPOCH":"2026-03-29T23:32:29.197536","MEAN_MOTION":15.30204164,"ECCENTRICITY":6.53e-5,"INCLINATION":53.1576,"RA_OF_ASC_NODE":292.6126,"ARG_OF_PERICENTER":82.3113,"MEAN_ANOMALY":277.7962,"EPHEMERIS_TYPE":0,"CLASSIFICATION_TYPE":"U","NORAD_CAT_ID":65091,"ELEMENT_SET_NO":999,"REV_AT_EPOCH":3658,"BSTAR":0.00068239,"MEAN_MOTION_DOT":0.00019908,"MEAN_MOTION_DDOT":0},{"OBJECT_NAME":"STARLINK-34640","OBJECT_ID":"2025-167Q","EPOCH":"2026-03-30T01:03:29.976480","MEAN_MOTION":15.30219087,"ECCENTRICITY":0.0001189,"INCLINATION":53.1583,"RA_OF_ASC_NODE":292.2957,"ARG_OF_PERICENTER":96.1221,"MEAN_ANOMALY":263.9915,"EPHEMERIS_TYPE":0,"CLASSIFICATION_TYPE":"U","NORAD_CAT_ID":65092,"ELEMENT_SET_NO":999,"REV_AT_EPOCH":3659,"BSTAR":0.00072843,"MEAN_MOTION_DOT":0.00021289,"MEAN_MOTION_DDOT":0}]
